{
    "links": {
        "self": "http://www.neowsapp.com/rest/v1/neo/3297358?api_key=iIulBulltgU6a56xZRHN4H3l9WmuAYTsLGpBGhQ2"
    },
    "id": "3297358",
    "neo_reference_id": "3297358",
    "name": "(2005 UN5)",
    "designation": "2005 UN5",
    "nasa_jpl_url": "http://ssd.jpl.nasa.gov/sbdb.cgi?sstr=3297358",
    "absolute_magnitude_h": 24.4,
    "estimated_diameter": {
        "kilometers": {
            "estimated_diameter_min": 0.0350392641,
            "estimated_diameter_max": 0.0783501764
        },
        "meters": {
            "estimated_diameter_min": 35.0392641108,
            "estimated_diameter_max": 78.3501764334
        },
        "miles": {
            "estimated_diameter_min": 0.0217723826,
            "estimated_diameter_max": 0.0486845275
        },
        "feet": {
            "estimated_diameter_min": 114.9582192654,
            "estimated_diameter_max": 257.0543928497
        }
    },
    "is_potentially_hazardous_asteroid": false,
    "close_approach_data": [
        {
            "close_approach_date": "1901-10-21",
            "close_approach_date_full": "1901-Oct-21 06:05",
            "epoch_date_close_approach": -2152115700000,
            "relative_velocity": {
                "kilometers_per_second": "7.0494803063",
                "kilometers_per_hour": "25378.1291025471",
                "miles_per_hour": "15768.9824970799"
            },
            "miss_distance": {
                "astronomical": "0.073331161",
                "lunar": "28.525821629",
                "kilometers": "10970185.49022707",
                "miles": "6816557.175670766"
            },
            "orbiting_body": "Earth"
        },
        {
            "close_approach_date": "2005-10-03",
            "close_approach_date_full": "2005-Oct-03 17:12",
            "epoch_date_close_approach": 1128359520000,
            "relative_velocity": {
                "kilometers_per_second": "5.8392533855",
                "kilometers_per_hour": "21021.3121877455",
                "miles_per_hour": "13061.8258979911"
            },
            "miss_distance": {
                "astronomical": "0.0677664868",
                "lunar": "26.3611633652",
                "kilometers": "10137722.082663116",
                "miles": "6299288.4002823608"
            },
            "orbiting_body": "Earth"
        },
        {
            "close_approach_date": "2121-08-31",
            "close_approach_date_full": "2121-Aug-31 04:29",
            "epoch_date_close_approach": 4786057740000,
            "relative_velocity": {
                "kilometers_per_second": "11.3371696626",
                "kilometers_per_hour": "40813.8107855141",
                "miles_per_hour": "25360.1148183657"
            },
            "miss_distance": {
                "astronomical": "0.2400321976",
                "lunar": "93.3725248664",
                "kilometers": "35908305.492379112",
                "miles": "22312386.3938592656"
            },
            "orbiting_body": "Earth"
        }
    ],
    "orbital_data": {
        "orbit_id": "8",
        "orbit_determination_date": "2017-04-06 09:10:05",
        "first_observation_date": "2005-10-27",
        "last_observation_date": "2005-11-12",
        "data_arc_in_days": 16,
        "observations_used": 16,
        "orbit_uncertainty": "8",
        "minimum_orbit_intersection": ".0553578",
        "jupiter_tisserand_invariant": "3.952",
        "epoch_osculation": "2453674.5",
        "eccentricity": ".4217457526787768",
        "semi_major_axis": "1.800064582178245",
        "inclination": "5.800276539921599",
        "ascending_node_longitude": "37.34512450619735",
        "orbital_period": "882.1258667669489",
        "perihelion_distance": "1.040894990097073",
        "perihelion_argument": "334.8877443349472",
        "aphelion_distance": "2.559234174259416",
        "perihelion_time": "2453647.234440241904",
        "mean_anomaly": "11.12721198040525",
        "mean_motion": ".4081050262355693",
        "equinox": "J2000",
        "orbit_class": {
            "orbit_class_type": "AMO",
            "orbit_class_description": "Near-Earth asteroid orbits similar to that of 1221 Amor",
            "orbit_class_range": "1.017 AU < q (perihelion) < 1.3 AU"
        }
    },
    "is_sentry_object": false
}